[{"OBJECT_NAME":"ALOS (DAICHI)","OBJECT_ID":"2006-002A","EPOCH":"2026-03-09T20:14:22.841952","MEAN_MOTION":14.69811163,"ECCENTRICITY":9.04e-5,"INCLINATION":98.1218,"RA_OF_ASC_NODE":24.7979,"ARG_OF_PERICENTER":55.8758,"MEAN_ANOMALY":304.2533,"EPHEMERIS_TYPE":0,"CLASSIFICATION_TYPE":"U","NORAD_CAT_ID":28931,"ELEMENT_SET_NO":999,"REV_AT_EPOCH":7350,"BSTAR":0.00032296,"MEAN_MOTION_DOT":1.879e-5,"MEAN_MOTION_DDOT":0},{"OBJECT_NAME":"H-2A R/B","OBJECT_ID":"2006-002B","EPOCH":"2026-03-09T20:57:17.771904","MEAN_MOTION":15.16424858,"ECCENTRICITY":0.0051904,"INCLINATION":98.2412,"RA_OF_ASC_NODE":215.9121,"ARG_OF_PERICENTER":240.3557,"MEAN_ANOMALY":119.2499,"EPHEMERIS_TYPE":0,"CLASSIFICATION_TYPE":"U","NORAD_CAT_ID":28932,"ELEMENT_SET_NO":999,"REV_AT_EPOCH":9446,"BSTAR":0.000574,"MEAN_MOTION_DOT":0.00011476,"MEAN_MOTION_DDOT":0},{"OBJECT_NAME":"RESURS-DK 1","OBJECT_ID":"2006-021A","EPOCH":"2026-03-09T20:47:10.198464","MEAN_MOTION":15.12746011,"ECCENTRICITY":0.0001873,"INCLINATION":69.9317,"RA_OF_ASC_NODE":236.5664,"ARG_OF_PERICENTER":163.0233,"MEAN_ANOMALY":197.0996,"EPHEMERIS_TYPE":0,"CLASSIFICATION_TYPE":"U","NORAD_CAT_ID":29228,"ELEMENT_SET_NO":999,"REV_AT_EPOCH":8755,"BSTAR":0.00024045,"MEAN_MOTION_DOT":4.119e-5,"MEAN_MOTION_DDOT":0},{"OBJECT_NAME":"CZ-4B R/B","OBJECT_ID":"2006-046C","EPOCH":"2026-03-09T16:12:15.634944","MEAN_MOTION":15.1690401,"ECCENTRICITY":0.0031692,"INCLINATION":97.5596,"RA_OF_ASC_NODE":113.5843,"ARG_OF_PERICENTER":267.3866,"MEAN_ANOMALY":92.3739,"EPHEMERIS_TYPE":0,"CLASSIFICATION_TYPE":"U","NORAD_CAT_ID":29507,"ELEMENT_SET_NO":999,"REV_AT_EPOCH":6004,"BSTAR":0.00030123,"MEAN_MOTION_DOT":5.942e-5,"MEAN_MOTION_DDOT":0},{"OBJECT_NAME":"CZ-2C R/B","OBJECT_ID":"2007-010B","EPOCH":"2026-03-09T20:48:10.834848","MEAN_MOTION":14.20246229,"ECCENTRICITY":0.0057933,"INCLINATION":98.398,"RA_OF_ASC_NODE":182.1367,"ARG_OF_PERICENTER":294.0785,"MEAN_ANOMALY":65.4338,"EPHEMERIS_TYPE":0,"CLASSIFICATION_TYPE":"U","NORAD_CAT_ID":31114,"ELEMENT_SET_NO":999,"REV_AT_EPOCH":97974,"BSTAR":9.3396e-5,"MEAN_MOTION_DOT":1.61e-6,"MEAN_MOTION_DDOT":0},{"OBJECT_NAME":"COSMO-SKYMED 1","OBJECT_ID":"2007-023A","EPOCH":"2026-03-09T19:09:24.500736","MEAN_MOTION":14.96535076,"ECCENTRICITY":0.0001256,"INCLINATION":97.8872,"RA_OF_ASC_NODE":259.8307,"ARG_OF_PERICENTER":100.2872,"MEAN_ANOMALY":259.849,"EPHEMERIS_TYPE":0,"CLASSIFICATION_TYPE":"U","NORAD_CAT_ID":31598,"ELEMENT_SET_NO":999,"REV_AT_EPOCH":1492,"BSTAR":0.0003821,"MEAN_MOTION_DOT":4.286e-5,"MEAN_MOTION_DDOT":0},{"OBJECT_NAME":"COSMOS 2428","OBJECT_ID":"2007-029A","EPOCH":"2026-03-09T19:37:46.691328","MEAN_MOTION":14.12946167,"ECCENTRICITY":0.0009138,"INCLINATION":70.9433,"RA_OF_ASC_NODE":203.0735,"ARG_OF_PERICENTER":276.8795,"MEAN_ANOMALY":83.1286,"EPHEMERIS_TYPE":0,"CLASSIFICATION_TYPE":"U","NORAD_CAT_ID":31792,"ELEMENT_SET_NO":999,"REV_AT_EPOCH":96411,"BSTAR":6.0954e-5,"MEAN_MOTION_DOT":6.6e-7,"MEAN_MOTION_DDOT":0},{"OBJECT_NAME":"SL-16 R/B","OBJECT_ID":"2007-029B","EPOCH":"2026-03-09T17:09:01.618848","MEAN_MOTION":14.14833325,"ECCENTRICITY":0.0002308,"INCLINATION":70.9759,"RA_OF_ASC_NODE":172.3325,"ARG_OF_PERICENTER":276.2204,"MEAN_ANOMALY":193.3696,"EPHEMERIS_TYPE":0,"CLASSIFICATION_TYPE":"U","NORAD_CAT_ID":31793,"ELEMENT_SET_NO":999,"REV_AT_EPOCH":96537,"BSTAR":4.7723e-5,"MEAN_MOTION_DOT":4.4e-7,"MEAN_MOTION_DDOT":0},{"OBJECT_NAME":"KORONAS-FOTON","OBJECT_ID":"2009-003A","EPOCH":"2026-03-09T19:53:57.402240","MEAN_MOTION":15.43324779,"ECCENTRICITY":0.0011317,"INCLINATION":82.4276,"RA_OF_ASC_NODE":275.7326,"ARG_OF_PERICENTER":149.0532,"MEAN_ANOMALY":211.1384,"EPHEMERIS_TYPE":0,"CLASSIFICATION_TYPE":"U","NORAD_CAT_ID":33504,"ELEMENT_SET_NO":999,"REV_AT_EPOCH":94576,"BSTAR":0.00025165,"MEAN_MOTION_DOT":0.00011273,"MEAN_MOTION_DDOT":0},{"OBJECT_NAME":"CZ-2C R/B","OBJECT_ID":"2011-030B","EPOCH":"2026-03-09T21:09:37.668672","MEAN_MOTION":14.81223931,"ECCENTRICITY":0.0052379,"INCLINATION":97.8549,"RA_OF_ASC_NODE":26.141,"ARG_OF_PERICENTER":351.4471,"MEAN_ANOMALY":67.3026,"EPHEMERIS_TYPE":0,"CLASSIFICATION_TYPE":"U","NORAD_CAT_ID":37731,"ELEMENT_SET_NO":999,"REV_AT_EPOCH":79012,"BSTAR":0.0002892,"MEAN_MOTION_DOT":2.251e-5,"MEAN_MOTION_DDOT":0},{"OBJECT_NAME":"H-2A R/B","OBJECT_ID":"2012-025E","EPOCH":"2026-03-09T20:41:54.522240","MEAN_MOTION":14.95172532,"ECCENTRICITY":0.0043312,"INCLINATION":98.4741,"RA_OF_ASC_NODE":35.9227,"ARG_OF_PERICENTER":313.9175,"MEAN_ANOMALY":45.8471,"EPHEMERIS_TYPE":0,"CLASSIFICATION_TYPE":"U","NORAD_CAT_ID":38341,"ELEMENT_SET_NO":999,"REV_AT_EPOCH":74824,"BSTAR":0.00044935,"MEAN_MOTION_DOT":4.959e-5,"MEAN_MOTION_DDOT":0},{"OBJECT_NAME":"SHIJIAN-16 (SJ-16)","OBJECT_ID":"2013-057A","EPOCH":"2026-03-09T19:55:25.405824","MEAN_MOTION":14.92346167,"ECCENTRICITY":0.0015496,"INCLINATION":74.9733,"RA_OF_ASC_NODE":184.822,"ARG_OF_PERICENTER":112.2543,"MEAN_ANOMALY":248.0291,"EPHEMERIS_TYPE":0,"CLASSIFICATION_TYPE":"U","NORAD_CAT_ID":39358,"ELEMENT_SET_NO":999,"REV_AT_EPOCH":67152,"BSTAR":6.8039e-5,"MEAN_MOTION_DOT":6.68e-6,"MEAN_MOTION_DDOT":0},{"OBJECT_NAME":"SL-4 R/B","OBJECT_ID":"2014-021B","EPOCH":"2026-03-09T02:37:43.173408","MEAN_MOTION":15.39160447,"ECCENTRICITY":0.00975963,"INCLINATION":51.6078,"RA_OF_ASC_NODE":340.109,"ARG_OF_PERICENTER":100.9217,"MEAN_ANOMALY":260.2766,"EPHEMERIS_TYPE":0,"CLASSIFICATION_TYPE":"U","NORAD_CAT_ID":39679,"ELEMENT_SET_NO":999,"REV_AT_EPOCH":65618,"BSTAR":0.00043042763,"MEAN_MOTION_DOT":0.00019652,"MEAN_MOTION_DDOT":0},{"OBJECT_NAME":"ALOS-2","OBJECT_ID":"2014-029A","EPOCH":"2026-03-09T20:29:52.792800","MEAN_MOTION":14.795043,"ECCENTRICITY":0.0001434,"INCLINATION":97.9188,"RA_OF_ASC_NODE":167.4487,"ARG_OF_PERICENTER":94.3499,"MEAN_ANOMALY":265.7876,"EPHEMERIS_TYPE":0,"CLASSIFICATION_TYPE":"U","NORAD_CAT_ID":39766,"ELEMENT_SET_NO":999,"REV_AT_EPOCH":63689,"BSTAR":0.00022033,"MEAN_MOTION_DOT":1.596e-5,"MEAN_MOTION_DDOT":0},{"OBJECT_NAME":"YAOGAN-29","OBJECT_ID":"2015-069A","EPOCH":"2026-03-09T20:41:12.579360","MEAN_MOTION":14.82995185,"ECCENTRICITY":0.0001924,"INCLINATION":98.0144,"RA_OF_ASC_NODE":97.2918,"ARG_OF_PERICENTER":36.9695,"MEAN_ANOMALY":323.165,"EPHEMERIS_TYPE":0,"CLASSIFICATION_TYPE":"U","NORAD_CAT_ID":41038,"ELEMENT_SET_NO":999,"REV_AT_EPOCH":55590,"BSTAR":3.0778e-5,"MEAN_MOTION_DOT":1.96e-6,"MEAN_MOTION_DDOT":0},{"OBJECT_NAME":"ASTRO-H (HITOMI)","OBJECT_ID":"2016-012A","EPOCH":"2026-03-09T04:06:47.322720","MEAN_MOTION":15.10001629,"ECCENTRICITY":0.0009877,"INCLINATION":31.0008,"RA_OF_ASC_NODE":359.8923,"ARG_OF_PERICENTER":325.8962,"MEAN_ANOMALY":34.1041,"EPHEMERIS_TYPE":0,"CLASSIFICATION_TYPE":"U","NORAD_CAT_ID":41337,"ELEMENT_SET_NO":999,"REV_AT_EPOCH":55215,"BSTAR":0.00025536822,"MEAN_MOTION_DOT":4.351e-5,"MEAN_MOTION_DDOT":0},{"OBJECT_NAME":"HXMT (HUIYAN)","OBJECT_ID":"2017-034A","EPOCH":"2026-03-09T21:49:22.101312","MEAN_MOTION":15.17467944,"ECCENTRICITY":0.0032951,"INCLINATION":43.0157,"RA_OF_ASC_NODE":15.4521,"ARG_OF_PERICENTER":237.324,"MEAN_ANOMALY":122.4429,"EPHEMERIS_TYPE":0,"CLASSIFICATION_TYPE":"U","NORAD_CAT_ID":42758,"ELEMENT_SET_NO":999,"REV_AT_EPOCH":48257,"BSTAR":0.00038825,"MEAN_MOTION_DOT":7.794e-5,"MEAN_MOTION_DDOT":0}]
