ALOS (DAICHI)           
1 28931U 06002A   26068.84331993  .00001879  00000+0  32296-3 0  9992
2 28931  98.1218  24.7979 0000904  55.8758 304.2533 14.69811163 73508
H-2A R/B                
1 28932U 06002B   26068.87312236  .00011476  00000+0  57400-3 0  9993
2 28932  98.2412 215.9121 0051904 240.3557 119.2499 15.16424858 94460
RESURS-DK 1             
1 29228U 06021A   26068.86609026  .00004119  00000+0  24045-3 0  9993
2 29228  69.9317 236.5664 0001873 163.0233 197.0996 15.12746011 87553
CZ-4B R/B               
1 29507U 06046C   26068.67518096  .00005942  00000+0  30123-3 0  9994
2 29507  97.5596 113.5843 0031692 267.3866  92.3739 15.16904010 60040
CZ-2C R/B               
1 31114U 07010B   26068.86679207  .00000161  00000+0  93396-4 0  9996
2 31114  98.3980 182.1367 0057933 294.0785  65.4338 14.20246229979746
COSMO-SKYMED 1          
1 31598U 07023A   26068.79820024  .00004286  00000+0  38210-3 0  9998
2 31598  97.8872 259.8307 0001256 100.2872 259.8490 14.96535076 14926
COSMOS 2428             
1 31792U 07029A   26068.81790152  .00000066  00000+0  60954-4 0  9994
2 31792  70.9433 203.0735 0009138 276.8795  83.1286 14.12946167964115
SL-16 R/B               
1 31793U 07029B   26068.71460207  .00000044  00000+0  47723-4 0  9994
2 31793  70.9759 172.3325 0002308 276.2204 193.3696 14.14833325965372
KORONAS-FOTON           
1 33504U 09003A   26068.82913660  .00011273  00000+0  25165-3 0  9999
2 33504  82.4276 275.7326 0011317 149.0532 211.1384 15.43324779945761
CZ-2C R/B               
1 37731U 11030B   26068.88168598  .00002251  00000+0  28920-3 0  9994
2 37731  97.8549  26.1410 0052379 351.4471  67.3026 14.81223931790127
H-2A R/B                
1 38341U 12025E   26068.86243660  .00004959  00000+0  44935-3 0  9990
2 38341  98.4741  35.9227 0043312 313.9175  45.8471 14.95172532748247
SHIJIAN-16 (SJ-16)      
1 39358U 13057A   26068.83015516  .00000668  00000+0  68039-4 0  9994
2 39358  74.9733 184.8220 0015496 112.2543 248.0291 14.92346167671521
SL-4 R/B                
1 39679U 14021B   26068.10952747  .00019652  00000+0  43043-3 0  9998
2 39679  51.6078 340.1090 0097596 100.9217 260.2766 15.39160447656181
ALOS-2                  
1 39766U 14029A   26068.85408325  .00001596  00000+0  22033-3 0  9997
2 39766  97.9188 167.4487 0001434  94.3499 265.7876 14.79504300636898
YAOGAN-29               
1 41038U 15069A   26068.86195115  .00000196  00000+0  30778-4 0  9999
2 41038  98.0144  97.2918 0001924  36.9695 323.1650 14.82995185555900
ASTRO-H (HITOMI)        
1 41337U 16012A   26068.17138105  .00004351  00000+0  25537-3 0  9993
2 41337  31.0008 359.8923 0009877 325.8962  34.1041 15.10001629552153
HXMT (HUIYAN)           
1 42758U 17034A   26068.90928358  .00007794  00000+0  38825-3 0  9992
2 42758  43.0157  15.4521 0032951 237.3240 122.4429 15.17467944482575
